KUIPER-00236            
1 68582U 26072K   26099.50004619  .00020276  00000+0  53960-3 0  9999
2 68582  51.8751 149.0621 0002799  92.9673 267.1635 15.38186598   817
